[{"OBJECT_NAME":"WEILAI 1R","OBJECT_ID":"2019-093F","EPOCH":"2026-03-09T22:33:48.244608","MEAN_MOTION":14.997592,"ECCENTRICITY":0.00116762,"INCLINATION":97.7939,"RA_OF_ASC_NODE":158.7373,"ARG_OF_PERICENTER":23.5076,"MEAN_ANOMALY":336.6679,"EPHEMERIS_TYPE":0,"CLASSIFICATION_TYPE":"U","NORAD_CAT_ID":44884,"ELEMENT_SET_NO":999,"REV_AT_EPOCH":33754,"BSTAR":0.00050142794,"MEAN_MOTION_DOT":6.146e-5,"MEAN_MOTION_DDOT":0},{"OBJECT_NAME":"STARLINK-5905","OBJECT_ID":"2023-042A","EPOCH":"2026-03-09T22:31:17.200128","MEAN_MOTION":15.02535341,"ECCENTRICITY":0.00013511,"INCLINATION":43.0043,"RA_OF_ASC_NODE":55.1176,"ARG_OF_PERICENTER":275.5762,"MEAN_ANOMALY":84.4926,"EPHEMERIS_TYPE":0,"CLASSIFICATION_TYPE":"U","NORAD_CAT_ID":55986,"ELEMENT_SET_NO":999,"REV_AT_EPOCH":16376,"BSTAR":2.0543944e-5,"MEAN_MOTION_DOT":7.4e-7,"MEAN_MOTION_DDOT":0}]
